*******************************************************************************
Ephemeris / WWW_USER Mon Jul 15 19:31:43 2024 Pasadena, USA      / Horizons    
*******************************************************************************
Target body name: Hale-Bopp (C/1995 O1)           {source: JPL#226}
Center body name: Earth (399)                     {source: DE441}
Center-site name: Gemini South Obs., Cerro Pachon
*******************************************************************************
Start time      : A.D. 2018-Oct-19 23:04:00.0000 UT      
Stop  time      : A.D. 2018-Oct-20 09:51:00.0000 UT      
Step-size       : 1 minutes
*******************************************************************************
Target pole/equ : undefined
Target radii    : 30. km                                                       
Center geodetic : 289.2634, -30.2406227, 2.71233  {E-lon(deg),Lat(deg),Alt(km)}
Center cylindric: 289.2634,5517.21435,-3194.81213 {E-lon(deg),Dxy(km),Dz(km)}
Center pole/equ : ITRF93                          {East-longitude positive}
Center radii    : 6378.137, 6378.137, 6356.752 km {Equator_a, b, pole_c}       
Target primary  : Sun
Vis. interferer : MOON (R_eq= 1737.400) km        {source: DE441}
Rel. light bend : Sun                             {source: DE441}
Rel. lght bnd GM: 1.3271E+11 km^3/s^2                                          
Small-body perts: Yes                             {source: SB441-N16}
Atmos refraction: NO (AIRLESS)
RA format       : HMS
Time format     : CAL 
Calendar mode   : Mixed Julian/Gregorian
RTS-only print  : NO       
EOP file        : eop.240715.p241008                                           
EOP coverage    : DATA-BASED 1962-JAN-20 TO 2024-JUL-15. PREDICTS-> 2024-OCT-07
Units conversion: 1 au= 149597870.700 km, c= 299792.458 km/s, 1 day= 86400.0 s 
Table cut-offs 1: Elevation (-90.0deg=NO ),Airmass (>38.000=NO), Daylight (YES)
Table cut-offs 2: Solar elongation (  0.0,180.0=NO ),Local Hour Angle( 0.0=NO )
Table cut-offs 3: RA/DEC angular rate (     0.0=NO )                           
*******************************************************************************
Initial IAU76/J2000 heliocentric ecliptic osculating elements (au, days, deg.):
  EPOCH=  2459837.5 ! 2022-Sep-15.0000000 (TDB)    RMSW= n.a.                  
   EC= .9949810027633206   QR= .890537663547794    TP= 2450537.1349071441      
   OM= 282.7334213961641   W= 130.4146670659176    IN= 89.28759424740302       
  Equivalent ICRF heliocentric cartesian coordinates (au, au/d):
   X= 3.907631452214869E+00  Y=-1.373895334060347E+00  Z=-4.624358508575312E+01
  VX= 3.778244409519935E-04 VY=-5.803173067116371E-04 VZ=-3.255716412104052E-03
Comet physical (GM= km^3/s^2; RAD= km):                                        
   GM= n.a.                RAD= 30.                                            
   M1=  4.8      M2=  n.a.     k1=  4.     k2= n.a.     PHCOF= n.a.            
*******************************************************************************
 Date__(UT)__HR:MN     R.A._________(ICRF)_________DEC
******************************************************
$$SOE
 2018-Oct-20 07:20  m  22 35 48.734120 -86 22 48.61919
 2018-Oct-20 07:21  m  22 35 48.695464 -86 22 48.57561
 2018-Oct-20 07:22  m  22 35 48.656813 -86 22 48.53203
 2018-Oct-20 07:23  m  22 35 48.618166 -86 22 48.48845
 2018-Oct-20 07:24  m  22 35 48.579524 -86 22 48.44487
 2018-Oct-20 07:25  m  22 35 48.540886 -86 22 48.40128
 2018-Oct-20 07:26  m  22 35 48.502252 -86 22 48.35770
 2018-Oct-20 07:27  m  22 35 48.463623 -86 22 48.31412
 2018-Oct-20 07:28  m  22 35 48.424999 -86 22 48.27053
 2018-Oct-20 07:29  m  22 35 48.386379 -86 22 48.22695
 2018-Oct-20 07:30  m  22 35 48.347764 -86 22 48.18336
 2018-Oct-20 07:31  m  22 35 48.309153 -86 22 48.13978
 2018-Oct-20 07:32  m  22 35 48.270546 -86 22 48.09619
 2018-Oct-20 07:33  m  22 35 48.231944 -86 22 48.05261
 2018-Oct-20 07:34  m  22 35 48.193346 -86 22 48.00902
 2018-Oct-20 07:35  m  22 35 48.154753 -86 22 47.96543
 2018-Oct-20 07:36  m  22 35 48.116165 -86 22 47.92184
 2018-Oct-20 07:37  m  22 35 48.077581 -86 22 47.87826
 2018-Oct-20 07:38  m  22 35 48.039001 -86 22 47.83467
 2018-Oct-20 07:39  m  22 35 48.000426 -86 22 47.79108
 2018-Oct-20 07:40  m  22 35 47.961855 -86 22 47.74749
 2018-Oct-20 07:41  m  22 35 47.923289 -86 22 47.70390
 2018-Oct-20 07:42  m  22 35 47.884728 -86 22 47.66031
 2018-Oct-20 07:43  m  22 35 47.846170 -86 22 47.61672
 2018-Oct-20 07:44  m  22 35 47.807618 -86 22 47.57313
 2018-Oct-20 07:45  m  22 35 47.769069 -86 22 47.52954
 2018-Oct-20 07:46  m  22 35 47.730526 -86 22 47.48595
 2018-Oct-20 07:47  m  22 35 47.691986 -86 22 47.44236
 2018-Oct-20 07:48  m  22 35 47.653451 -86 22 47.39876
 2018-Oct-20 07:49  m  22 35 47.614921 -86 22 47.35517
 2018-Oct-20 07:50  m  22 35 47.576395 -86 22 47.31158
 2018-Oct-20 07:51  m  22 35 47.537874 -86 22 47.26799
 2018-Oct-20 07:52  m  22 35 47.499357 -86 22 47.22440
 2018-Oct-20 07:53  m  22 35 47.460844 -86 22 47.18080
 2018-Oct-20 07:54  m  22 35 47.422336 -86 22 47.13721
 2018-Oct-20 07:55  m  22 35 47.383832 -86 22 47.09362
 2018-Oct-20 07:56  m  22 35 47.345333 -86 22 47.05003
 2018-Oct-20 07:57  m  22 35 47.306839 -86 22 47.00643
 2018-Oct-20 07:58  m  22 35 47.268348 -86 22 46.96284
 2018-Oct-20 07:59     22 35 47.229862 -86 22 46.91925
 2018-Oct-20 08:00     22 35 47.191381 -86 22 46.87565
 2018-Oct-20 08:01     22 35 47.152904 -86 22 46.83206
 2018-Oct-20 08:02     22 35 47.114432 -86 22 46.78847
 2018-Oct-20 08:03     22 35 47.075964 -86 22 46.74487
 2018-Oct-20 08:04     22 35 47.037500 -86 22 46.70128
 2018-Oct-20 08:05     22 35 46.999041 -86 22 46.65769
 2018-Oct-20 08:06     22 35 46.960586 -86 22 46.61409
 2018-Oct-20 08:07     22 35 46.922136 -86 22 46.57050
 2018-Oct-20 08:08     22 35 46.883690 -86 22 46.52691
 2018-Oct-20 08:09     22 35 46.845248 -86 22 46.48331
 2018-Oct-20 08:10     22 35 46.806811 -86 22 46.43972
 2018-Oct-20 08:11     22 35 46.768379 -86 22 46.39613
 2018-Oct-20 08:12     22 35 46.729951 -86 22 46.35253
 2018-Oct-20 08:13     22 35 46.691527 -86 22 46.30894
 2018-Oct-20 08:14     22 35 46.653107 -86 22 46.26535
 2018-Oct-20 08:15     22 35 46.614692 -86 22 46.22176
 2018-Oct-20 08:16     22 35 46.576282 -86 22 46.17816
 2018-Oct-20 08:17     22 35 46.537875 -86 22 46.13457
 2018-Oct-20 08:18     22 35 46.499474 -86 22 46.09098
 2018-Oct-20 08:19     22 35 46.461076 -86 22 46.04739
 2018-Oct-20 08:20     22 35 46.422683 -86 22 46.00380
 2018-Oct-20 08:21     22 35 46.384294 -86 22 45.96021
 2018-Oct-20 08:22     22 35 46.345910 -86 22 45.91662
 2018-Oct-20 08:23     22 35 46.307530 -86 22 45.87302
 2018-Oct-20 08:24     22 35 46.269154 -86 22 45.82943
 2018-Oct-20 08:25     22 35 46.230783 -86 22 45.78584
 2018-Oct-20 08:26     22 35 46.192416 -86 22 45.74225
 2018-Oct-20 08:27     22 35 46.154054 -86 22 45.69867
 2018-Oct-20 08:28     22 35 46.115696 -86 22 45.65508
 2018-Oct-20 08:29     22 35 46.077342 -86 22 45.61149
 2018-Oct-20 08:30     22 35 46.038992 -86 22 45.56790
 2018-Oct-20 08:31     22 35 46.000647 -86 22 45.52431
 2018-Oct-20 08:32     22 35 45.962306 -86 22 45.48072
 2018-Oct-20 08:33     22 35 45.923970 -86 22 45.43714
 2018-Oct-20 08:34     22 35 45.885638 -86 22 45.39355
 2018-Oct-20 08:35     22 35 45.847310 -86 22 45.34997
 2018-Oct-20 08:36 A   22 35 45.808986 -86 22 45.30638
 2018-Oct-20 08:37 A   22 35 45.770667 -86 22 45.26280
 2018-Oct-20 08:38 A   22 35 45.732352 -86 22 45.21921
 2018-Oct-20 08:39 A   22 35 45.694042 -86 22 45.17563
 2018-Oct-20 08:40 A   22 35 45.655735 -86 22 45.13204
 2018-Oct-20 08:41 A   22 35 45.617433 -86 22 45.08846
 2018-Oct-20 08:42 A   22 35 45.579136 -86 22 45.04488
 2018-Oct-20 08:43 A   22 35 45.540842 -86 22 45.00130
 2018-Oct-20 08:44 A   22 35 45.502553 -86 22 44.95772
 2018-Oct-20 08:45 A   22 35 45.464268 -86 22 44.91413
 2018-Oct-20 08:46 A   22 35 45.425987 -86 22 44.87055
 2018-Oct-20 08:47 A   22 35 45.387711 -86 22 44.82698
 2018-Oct-20 08:48 A   22 35 45.349439 -86 22 44.78340
 2018-Oct-20 08:49 A   22 35 45.311171 -86 22 44.73982
 2018-Oct-20 08:50 A   22 35 45.272907 -86 22 44.69624
 2018-Oct-20 08:51 A   22 35 45.234648 -86 22 44.65266
 2018-Oct-20 08:52 A   22 35 45.196392 -86 22 44.60909
 2018-Oct-20 08:53 A   22 35 45.158141 -86 22 44.56551
 2018-Oct-20 08:54 A   22 35 45.119894 -86 22 44.52194
 2018-Oct-20 08:55 A   22 35 45.081652 -86 22 44.47837
 2018-Oct-20 08:56 A   22 35 45.043413 -86 22 44.43479
 2018-Oct-20 08:57 A   22 35 45.005179 -86 22 44.39122
 2018-Oct-20 08:58 A   22 35 44.966949 -86 22 44.34765
 2018-Oct-20 08:59 A   22 35 44.928723 -86 22 44.30408
 2018-Oct-20 09:00 A   22 35 44.890502 -86 22 44.26051
 2018-Oct-20 09:01 A   22 35 44.852284 -86 22 44.21694
 2018-Oct-20 09:02 A   22 35 44.814071 -86 22 44.17337
 2018-Oct-20 09:03 A   22 35 44.775862 -86 22 44.12980
 2018-Oct-20 09:04 A   22 35 44.737657 -86 22 44.08624
 2018-Oct-20 09:05 A   22 35 44.699456 -86 22 44.04267
 2018-Oct-20 09:06 N   22 35 44.661259 -86 22 43.99911
 2018-Oct-20 09:07 N   22 35 44.623066 -86 22 43.95554
 2018-Oct-20 09:08 N   22 35 44.584878 -86 22 43.91198
 2018-Oct-20 09:09 N   22 35 44.546693 -86 22 43.86842
 2018-Oct-20 09:10 N   22 35 44.508513 -86 22 43.82486
 2018-Oct-20 09:11 N   22 35 44.470337 -86 22 43.78130
 2018-Oct-20 09:12 N   22 35 44.432165 -86 22 43.73774
 2018-Oct-20 09:13 N   22 35 44.393997 -86 22 43.69418
 2018-Oct-20 09:14 N   22 35 44.355833 -86 22 43.65063
 2018-Oct-20 09:15 N   22 35 44.317673 -86 22 43.60707
 2018-Oct-20 09:16 N   22 35 44.279517 -86 22 43.56351
 2018-Oct-20 09:17 N   22 35 44.241365 -86 22 43.51996
 2018-Oct-20 09:18 N   22 35 44.203218 -86 22 43.47641
 2018-Oct-20 09:19 N   22 35 44.165074 -86 22 43.43286
 2018-Oct-20 09:20 N   22 35 44.126935 -86 22 43.38931
 2018-Oct-20 09:21 N   22 35 44.088799 -86 22 43.34576
 2018-Oct-20 09:22 N   22 35 44.050667 -86 22 43.30221
 2018-Oct-20 09:23 N   22 35 44.012540 -86 22 43.25866
